{
  "type": "FeatureCollection",
  "features": [
    {
      "type": "Feature",
      "properties": {
        "norad_id": 39541,
        "name": "FENGYUN 1C DEB",
        "group": "fengyun-1c-debris",
        "lat": 3.829846491699401,
        "lon": -144.75547392404127,
        "alt_km": 851.6001455868154,
        "timestamp": "2025-12-18T15:47:11.513402+00:00",
        "meta_object_name": "FENGYUN 1C DEB",
        "meta_object_id": "1999-025EWJ",
        "meta_epoch": "2025-12-14T09:31:50.250432",
        "meta_mean_motion": 14.20397112,
        "meta_eccentricity": 0.00718166,
        "meta_inclination": 98.681,
        "meta_ra_of_asc_node": 30.4764,
        "meta_arg_of_pericenter": 68.7411,
        "meta_mean_anomaly": 292.1416,
        "meta_ephemeris_type": 0,
        "meta_classification_type": "U",
        "meta_norad_cat_id": 39541,
        "meta_element_set_no": 999,
        "meta_rev_at_epoch": 59026,
        "meta_bstar": 0.00071004371,
        "meta_mean_motion_dot": 1.519e-05,
        "meta_mean_motion_ddot": 0,
        "tle_line1": "1 39541U 99025EWJ 25348.39710938  .00001519  00000+0  71004-3 0  9999",
        "tle_line2": "2 39541  98.6810  30.4764 0071816  68.7411 292.1416 14.20397112590267"
      },
      "geometry": {
        "type": "Point",
        "coordinates": [
          -144.75547392404127,
          3.829846491699401
        ]
      }
    },
    {
      "type": "Feature",
      "properties": {
        "norad_id": 39543,
        "name": "FENGYUN 1C DEB",
        "group": "fengyun-1c-debris",
        "lat": -4.2186215009444465,
        "lon": 22.836045236349772,
        "alt_km": 1160.7363770714965,
        "timestamp": "2025-12-18T15:47:11.513412+00:00",
        "meta_object_name": "FENGYUN 1C DEB",
        "meta_object_id": "1999-025EWL",
        "meta_epoch": "2025-12-16T07:43:36.530976",
        "meta_mean_motion": 13.70197726,
        "meta_eccentricity": 0.03391489,
        "meta_inclination": 99.0417,
        "meta_ra_of_asc_node": 19.9631,
        "meta_arg_of_pericenter": 132.7774,
        "meta_mean_anomaly": 230.2435,
        "meta_ephemeris_type": 0,
        "meta_classification_type": "U",
        "meta_norad_cat_id": 39543,
        "meta_element_set_no": 999,
        "meta_rev_at_epoch": 49234,
        "meta_bstar": 0.00081019098,
        "meta_mean_motion_dot": 1.033e-05,
        "meta_mean_motion_ddot": 0,
        "tle_line1": "1 39543U 99025EWL 25350.32195059  .00001033  00000+0  81019-3 0  9996",
        "tle_line2": "2 39543  99.0417  19.9631 0339148 132.7774 230.2435 13.70197726492348"
      },
      "geometry": {
        "type": "Point",
        "coordinates": [
          22.836045236349772,
          -4.2186215009444465
        ]
      }
    },
    {
      "type": "Feature",
      "properties": {
        "norad_id": 39544,
        "name": "FENGYUN 1C DEB",
        "group": "fengyun-1c-debris",
        "lat": 78.53044206192358,
        "lon": -177.72727272064853,
        "alt_km": 866.8435062943099,
        "timestamp": "2025-12-18T15:47:11.513422+00:00",
        "meta_object_name": "FENGYUN 1C DEB",
        "meta_object_id": "1999-025EWM",
        "meta_epoch": "2025-12-17T22:18:47.111616",
        "meta_mean_motion": 14.05533186,
        "meta_eccentricity": 0.00543418,
        "meta_inclination": 98.742,
        "meta_ra_of_asc_node": 230.8895,
        "meta_arg_of_pericenter": 355.0282,
        "meta_mean_anomaly": 5.034,
        "meta_ephemeris_type": 0,
        "meta_classification_type": "U",
        "meta_norad_cat_id": 39544,
        "meta_element_set_no": 999,
        "meta_rev_at_epoch": 56928,
        "meta_bstar": 0.00034504037,
        "meta_mean_motion_dot": 5.26e-06,
        "meta_mean_motion_ddot": 0,
        "tle_line1": "1 39544U 99025EWM 25351.92971194  .00000526  00000+0  34504-3 0  9999",
        "tle_line2": "2 39544  98.7420 230.8895 0054341 355.0282   5.0340 14.05533186569282"
      },
      "geometry": {
        "type": "Point",
        "coordinates": [
          -177.72727272064853,
          78.53044206192358
        ]
      }
    },
    {
      "type": "Feature",
      "properties": {
        "norad_id": 40688,
        "name": "FENGYUN 1C DEB",
        "group": "fengyun-1c-debris",
        "lat": -64.75047813146452,
        "lon": 161.5086081665561,
        "alt_km": 941.3362767367607,
        "timestamp": "2025-12-18T15:47:11.513432+00:00",
        "meta_object_name": "FENGYUN 1C DEB",
        "meta_object_id": "1999-025EWU",
        "meta_epoch": "2025-12-16T15:30:51.926976",
        "meta_mean_motion": 13.83832455,
        "meta_eccentricity": 0.01420789,
        "meta_inclination": 98.9687,
        "meta_ra_of_asc_node": 140.0258,
        "meta_arg_of_pericenter": 21.0434,
        "meta_mean_anomaly": 339.6489,
        "meta_ephemeris_type": 0,
        "meta_classification_type": "U",
        "meta_norad_cat_id": 40688,
        "meta_element_set_no": 999,
        "meta_rev_at_epoch": 29971,
        "meta_bstar": 0.00034363233,
        "meta_mean_motion_dot": 3.7e-06,
        "meta_mean_motion_ddot": 0,
        "tle_line1": "1 40688U 99025EWU 25350.64643434  .00000370  00000+0  34363-3 0  9991",
        "tle_line2": "2 40688  98.9687 140.0258 0142078  21.0434 339.6489 13.83832455299713"
      },
      "geometry": {
        "type": "Point",
        "coordinates": [
          161.5086081665561,
          -64.75047813146452
        ]
      }
    },
    {
      "type": "Feature",
      "properties": {
        "norad_id": 40689,
        "name": "FENGYUN 1C DEB",
        "group": "fengyun-1c-debris",
        "lat": -23.802946624240246,
        "lon": -85.6593000128695,
        "alt_km": 1096.0495838201978,
        "timestamp": "2025-12-18T15:47:11.513442+00:00",
        "meta_object_name": "FENGYUN 1C DEB",
        "meta_object_id": "1999-025EWV",
        "meta_epoch": "2025-12-15T14:00:17.692704",
        "meta_mean_motion": 13.64713186,
        "meta_eccentricity": 0.03107205,
        "meta_inclination": 99.1258,
        "meta_ra_of_asc_node": 267.381,
        "meta_arg_of_pericenter": 93.9269,
        "meta_mean_anomaly": 269.7453,
        "meta_ephemeris_type": 0,
        "meta_classification_type": "U",
        "meta_norad_cat_id": 40689,
        "meta_element_set_no": 999,
        "meta_rev_at_epoch": 54922,
        "meta_bstar": 0.0014500265,
        "meta_mean_motion_dot": 1.584e-05,
        "meta_mean_motion_ddot": 0,
        "tle_line1": "1 40689U 99025EWV 25349.58353811  .00001584  00000+0  14500-2 0  9998",
        "tle_line2": "2 40689  99.1258 267.3810 0310720  93.9269 269.7453 13.64713186549229"
      },
      "geometry": {
        "type": "Point",
        "coordinates": [
          -85.6593000128695,
          -23.802946624240246
        ]
      }
    },
    {
      "type": "Feature",
      "properties": {
        "norad_id": 40691,
        "name": "FENGYUN 1C DEB",
        "group": "fengyun-1c-debris",
        "lat": -79.99389649408762,
        "lon": 140.06743723010666,
        "alt_km": 854.0186420464306,
        "timestamp": "2025-12-18T15:47:11.513452+00:00",
        "meta_object_name": "FENGYUN 1C DEB",
        "meta_object_id": "1999-025EWX",
        "meta_epoch": "2025-12-03T08:15:02.306016",
        "meta_mean_motion": 13.89944729,
        "meta_eccentricity": 0.0128434,
        "meta_inclination": 99.0573,
        "meta_ra_of_asc_node": 9.8547,
        "meta_arg_of_pericenter": 336.6089,
        "meta_mean_anomaly": 22.9259,
        "meta_ephemeris_type": 0,
        "meta_classification_type": "U",
        "meta_norad_cat_id": 40691,
        "meta_element_set_no": 999,
        "meta_rev_at_epoch": 55305,
        "meta_bstar": 0.00023937,
        "meta_mean_motion_dot": 2.71e-06,
        "meta_mean_motion_ddot": 0,
        "tle_line1": "1 40691U 99025EWX 25337.34377669  .00000271  00000+0  23937-3 0  9996",
        "tle_line2": "2 40691  99.0573   9.8547 0128434 336.6089  22.9259 13.89944729553058"
      },
      "geometry": {
        "type": "Point",
        "coordinates": [
          140.06743723010666,
          -79.99389649408762
        ]
      }
    },
    {
      "type": "Feature",
      "properties": {
        "norad_id": 40695,
        "name": "FENGYUN 1C DEB",
        "group": "fengyun-1c-debris",
        "lat": -8.239420969442932,
        "lon": -69.79107101641317,
        "alt_km": 843.2743232958101,
        "timestamp": "2025-12-18T15:47:11.513462+00:00",
        "meta_object_name": "FENGYUN 1C DEB",
        "meta_object_id": "1999-025EXB",
        "meta_epoch": "2025-12-18T01:39:35.590752",
        "meta_mean_motion": 14.50974803,
        "meta_eccentricity": 0.02806239,
        "meta_inclination": 99.4255,
        "meta_ra_of_asc_node": 110.9275,
        "meta_arg_of_pericenter": 317.175,
        "meta_mean_anomaly": 40.7883,
        "meta_ephemeris_type": 0,
        "meta_classification_type": "U",
        "meta_norad_cat_id": 40695,
        "meta_element_set_no": 999,
        "meta_rev_at_epoch": 31943,
        "meta_bstar": 0.00016769448,
        "meta_mean_motion_dot": 1.026e-05,
        "meta_mean_motion_ddot": 0,
        "tle_line1": "1 40695U 99025EXB 25352.06916193  .00001026  00000+0  16769-3 0  9991",
        "tle_line2": "2 40695  99.4255 110.9275 0280623 317.1750  40.7883 14.50974803319431"
      },
      "geometry": {
        "type": "Point",
        "coordinates": [
          -69.79107101641317,
          -8.239420969442932
        ]
      }
    }
  ]
}